{
  "type": "FeatureCollection",
  "features": [
    {
      "type": "Feature",
      "properties": {
        "norad_id": 66933,
        "name": "STARLINK-36157",
        "group": "last-30-days",
        "lat": -43.64628833522043,
        "lon": -38.687720919015746,
        "alt_km": 351.5615897189782,
        "timestamp": "2025-12-21T09:37:21.374058+00:00",
        "meta_object_name": "STARLINK-36157",
        "meta_object_id": "2025-286J",
        "meta_epoch": "2025-12-21T04:00:01.998720",
        "meta_mean_motion": 15.74662228,
        "meta_eccentricity": 7.17e-05,
        "meta_inclination": 53.1577,
        "meta_ra_of_asc_node": 8.1333,
        "meta_arg_of_pericenter": 92.8508,
        "meta_mean_anomaly": 319.0431,
        "meta_ephemeris_type": 0,
        "meta_classification_type": "U",
        "meta_norad_cat_id": 66933,
        "meta_element_set_no": 999,
        "meta_rev_at_epoch": 334,
        "meta_bstar": -0.005043,
        "meta_mean_motion_dot": -0.00695338,
        "meta_mean_motion_ddot": 0,
        "tle_line1": "1 66933U 25286J   25355.16668980 -.00695338  00000+0 -50430-2 0  9993",
        "tle_line2": "2 66933  53.1577   8.1333 0000717  92.8508 319.0431 15.74662228  3346"
      },
      "geometry": {
        "type": "Point",
        "coordinates": [
          -38.687720919015746,
          -43.64628833522043
        ]
      }
    },
    {
      "type": "Feature",
      "properties": {
        "norad_id": 66934,
        "name": "STARLINK-36153",
        "group": "last-30-days",
        "lat": -42.55288263818206,
        "lon": -36.532637047097786,
        "alt_km": 351.6724761216283,
        "timestamp": "2025-12-21T09:37:21.374068+00:00",
        "meta_object_name": "STARLINK-36153",
        "meta_object_id": "2025-286K",
        "meta_epoch": "2025-12-21T04:00:01.998720",
        "meta_mean_motion": 15.74588153,
        "meta_eccentricity": 7.84e-05,
        "meta_inclination": 53.1577,
        "meta_ra_of_asc_node": 8.1291,
        "meta_arg_of_pericenter": 105.1641,
        "meta_mean_anomaly": 308.6915,
        "meta_ephemeris_type": 0,
        "meta_classification_type": "U",
        "meta_norad_cat_id": 66934,
        "meta_element_set_no": 999,
        "meta_rev_at_epoch": 334,
        "meta_bstar": -0.0043319,
        "meta_mean_motion_dot": -0.00602045,
        "meta_mean_motion_ddot": 0,
        "tle_line1": "1 66934U 25286K   25355.16668980 -.00602045  00000+0 -43319-2 0  9995",
        "tle_line2": "2 66934  53.1577   8.1291 0000784 105.1641 308.6915 15.74588153  3345"
      },
      "geometry": {
        "type": "Point",
        "coordinates": [
          -36.532637047097786,
          -42.55288263818206
        ]
      }
    },
    {
      "type": "Feature",
      "properties": {
        "norad_id": 66935,
        "name": "STARLINK-36127",
        "group": "last-30-days",
        "lat": -41.42346928614916,
        "lon": -34.45831814864335,
        "alt_km": 351.93700036925566,
        "timestamp": "2025-12-21T09:37:21.374078+00:00",
        "meta_object_name": "STARLINK-36127",
        "meta_object_id": "2025-286L",
        "meta_epoch": "2025-12-21T04:00:01.998720",
        "meta_mean_motion": 15.74481759,
        "meta_eccentricity": 0.0001175,
        "meta_inclination": 53.1578,
        "meta_ra_of_asc_node": 8.1251,
        "meta_arg_of_pericenter": 95.3276,
        "meta_mean_anomaly": 320.5092,
        "meta_ephemeris_type": 0,
        "meta_classification_type": "U",
        "meta_norad_cat_id": 66935,
        "meta_element_set_no": 999,
        "meta_rev_at_epoch": 334,
        "meta_bstar": -0.0033839,
        "meta_mean_motion_dot": -0.00475299,
        "meta_mean_motion_ddot": 0,
        "tle_line1": "1 66935U 25286L   25355.16668980 -.00475299  00000+0 -33839-2 0  9991",
        "tle_line2": "2 66935  53.1578   8.1251 0001175  95.3276 320.5092 15.74481759  3345"
      },
      "geometry": {
        "type": "Point",
        "coordinates": [
          -34.45831814864335,
          -41.42346928614916
        ]
      }
    },
    {
      "type": "Feature",
      "properties": {
        "norad_id": 66936,
        "name": "STARLINK-36160",
        "group": "last-30-days",
        "lat": -40.25681049727465,
        "lon": -32.45367961692125,
        "alt_km": 351.8134599228615,
        "timestamp": "2025-12-21T09:37:21.374098+00:00",
        "meta_object_name": "STARLINK-36160",
        "meta_object_id": "2025-286M",
        "meta_epoch": "2025-12-21T04:00:01.998720",
        "meta_mean_motion": 15.74442432,
        "meta_eccentricity": 0.0001053,
        "meta_inclination": 53.158,
        "meta_ra_of_asc_node": 8.1216,
        "meta_arg_of_pericenter": 92.7613,
        "meta_mean_anomaly": 325.0151,
        "meta_ephemeris_type": 0,
        "meta_classification_type": "U",
        "meta_norad_cat_id": 66936,
        "meta_element_set_no": 999,
        "meta_rev_at_epoch": 334,
        "meta_bstar": -0.0029741,
        "meta_mean_motion_dot": -0.00419797,
        "meta_mean_motion_ddot": 0,
        "tle_line1": "1 66936U 25286M   25355.16668980 -.00419797  00000+0 -29741-2 0  9990",
        "tle_line2": "2 66936  53.1580   8.1216 0001053  92.7613 325.0151 15.74442432  3342"
      },
      "geometry": {
        "type": "Point",
        "coordinates": [
          -32.45367961692125,
          -40.25681049727465
        ]
      }
    },
    {
      "type": "Feature",
      "properties": {
        "norad_id": 66937,
        "name": "STARLINK-36165",
        "group": "last-30-days",
        "lat": -39.06266796008801,
        "lon": -30.529934470114316,
        "alt_km": 351.7821042009009,
        "timestamp": "2025-12-21T09:37:21.374112+00:00",
        "meta_object_name": "STARLINK-36165",
        "meta_object_id": "2025-286N",
        "meta_epoch": "2025-12-21T04:00:01.998720",
        "meta_mean_motion": 15.74363533,
        "meta_eccentricity": 9.16e-05,
        "meta_inclination": 53.1575,
        "meta_ra_of_asc_node": 8.1168,
        "meta_arg_of_pericenter": 101.9428,
        "meta_mean_anomaly": 317.7853,
        "meta_ephemeris_type": 0,
        "meta_classification_type": "U",
        "meta_norad_cat_id": 66937,
        "meta_element_set_no": 999,
        "meta_rev_at_epoch": 334,
        "meta_bstar": -0.0022474,
        "meta_mean_motion_dot": -0.00319986,
        "meta_mean_motion_ddot": 0,
        "tle_line1": "1 66937U 25286N   25355.16668980 -.00319986  00000+0 -22474-2 0  9996",
        "tle_line2": "2 66937  53.1575   8.1168 0000916 101.9428 317.7853 15.74363533  3348"
      },
      "geometry": {
        "type": "Point",
        "coordinates": [
          -30.529934470114316,
          -39.06266796008801
        ]
      }
    },
    {
      "type": "Feature",
      "properties": {
        "norad_id": 66938,
        "name": "STARLINK-36155",
        "group": "last-30-days",
        "lat": -37.824227970984126,
        "lon": -28.649380057568273,
        "alt_km": 351.7176002347487,
        "timestamp": "2025-12-21T09:37:21.374122+00:00",
        "meta_object_name": "STARLINK-36155",
        "meta_object_id": "2025-286P",
        "meta_epoch": "2025-12-21T04:00:01.998720",
        "meta_mean_motion": 15.743529,
        "meta_eccentricity": 9.12e-05,
        "meta_inclination": 53.1576,
        "meta_ra_of_asc_node": 8.1128,
        "meta_arg_of_pericenter": 107.9943,
        "meta_mean_anomaly": 313.6636,
        "meta_ephemeris_type": 0,
        "meta_classification_type": "U",
        "meta_norad_cat_id": 66938,
        "meta_element_set_no": 999,
        "meta_rev_at_epoch": 334,
        "meta_bstar": -0.0019778,
        "meta_mean_motion_dot": -0.00282783,
        "meta_mean_motion_ddot": 0,
        "tle_line1": "1 66938U 25286P   25355.16668980 -.00282783  00000+0 -19778-2 0  9994",
        "tle_line2": "2 66938  53.1576   8.1128 0000912 107.9943 313.6636 15.74352900  3340"
      },
      "geometry": {
        "type": "Point",
        "coordinates": [
          -28.649380057568273,
          -37.824227970984126
        ]
      }
    },
    {
      "type": "Feature",
      "properties": {
        "norad_id": 66939,
        "name": "STARLINK-36154",
        "group": "last-30-days",
        "lat": -35.28508857866879,
        "lon": -25.10407984873262,
        "alt_km": 351.71796374365204,
        "timestamp": "2025-12-21T09:37:21.374132+00:00",
        "meta_object_name": "STARLINK-36154",
        "meta_object_id": "2025-286Q",
        "meta_epoch": "2025-12-21T04:00:01.998720",
        "meta_mean_motion": 15.74267763,
        "meta_eccentricity": 0.0001322,
        "meta_inclination": 53.1574,
        "meta_ra_of_asc_node": 8.1047,
        "meta_arg_of_pericenter": 88.9863,
        "meta_mean_anomaly": 336.5479,
        "meta_ephemeris_type": 0,
        "meta_classification_type": "U",
        "meta_norad_cat_id": 66939,
        "meta_element_set_no": 999,
        "meta_rev_at_epoch": 334,
        "meta_bstar": -0.0010572,
        "meta_mean_motion_dot": -0.00153211,
        "meta_mean_motion_ddot": 0,
        "tle_line1": "1 66939U 25286Q   25355.16668980 -.00153211  00000+0 -10572-2 0  9991",
        "tle_line2": "2 66939  53.1574   8.1047 0001322  88.9863 336.5479 15.74267763  3345"
      },
      "geometry": {
        "type": "Point",
        "coordinates": [
          -25.10407984873262,
          -35.28508857866879
        ]
      }
    }
  ]
}